CUTE-1 (CO-55)          
1 27844U 03031E   20141.01034316  .00000048  00000-0  41401-4 0  9994
2 27844  98.6822 149.1748 0010775 133.1420 227.0660 14.22237930876096
CUBESAT XI-IV (CO-57)   
1 27848U 03031J   20140.67686714  .00000033  00000-0  34899-4 0  9991
2 27848  98.6890 149.4006 0010435 145.2748 214.9112 14.21824443875855
CUBESAT XI-V            
1 28895U 05043F   20140.90895267  .00000084  00000-0  25042-4 0  9996
2 28895  98.0052 278.0705 0017010  15.7465 344.4264 14.63767585776665
CUTE-1.7+APD II (CO-65) 
1 32785U 08021C   20140.76128484  .00000163  00000-0  23147-4 0  9994
2 32785  97.5719 130.0423 0011827 223.6548 136.3735 14.88465037653601
AAUSAT-II               
1 32788U 08021F   20140.80698792  .00000204  00000-0  23564-4 0  9995
2 32788  97.4913 146.5803 0012569 145.4672 214.7368 14.95040843655030
DELFI-C3 (DO-64)        
1 32789U 08021G   20141.06196321  .00001367  00000-0  93443-4 0  9990
2 32789  97.4203 184.8538 0013446  58.7730 301.4814 15.07679495657632
SEEDS II (CO-66)        
1 32791U 08021J   20141.08019920  .00000316  00000-0  37253-4 0  9994
2 32791  97.5401 136.4855 0012873 190.4055 169.6899 14.91039389654232
SWISSCUBE               
1 35932U 09051B   20141.04863294  .00000118  00000-0  37761-4 0  9999
2 35932  98.6100 322.4214 0006975 205.8535 154.2314 14.56389469565732
BEESAT-1                
1 35933U 09051C   20141.16986249  .00000099  00000-0  33289-4 0  9998
2 35933  98.6099 324.4079 0004951 217.3982 142.6871 14.56465796565868
ITUPSAT1                
1 35935U 09051E   20140.73561230  .00000081  00000-0  29841-4 0  9991
2 35935  98.6207 324.1638 0007241 220.7351 139.3304 14.55612488565520
TISAT 1                 
1 36799U 10035E   20141.45869899  .00000174  00000-0  23592-4 0  9996
2 36799  98.1924 310.6602 0013527  65.2226 295.0397 14.91345393534951
M-CUBED & EXP-1 PRIME   
1 37855U 11061F   20141.14663455  .00001599  00000-0  86072-4 0  9990
2 37855 101.7131 214.9700 0171396 158.9357 201.9027 15.06234379467415
AEROCUBE 4.5A           
1 38767U 12048K   20140.86414032  .00000394  00000-0  46931-4 0  9994
2 38767  64.6662 325.7089 0143992 146.2637 214.7744 14.92264925 37535
AEROCUBE 4.5B           
1 38768U 12048L   20140.80978404  .00000605  00000-0  59718-4 0  9999
2 38768  64.6668 294.9327 0132860 142.3830 218.6669 14.95928715 37590
STRAND-1                
1 39090U 13009E   20141.05192373  .00000030  00000-0  25493-4 0  9992
2 39090  98.4592 345.8381 0009503  16.6698 343.4798 14.35130058378630
SOMP                    
1 39134U 13015E   20140.84121084  .00000948  00000-0  51338-4 0  9990
2 39134  64.8640  10.7062 0034222 248.4582 111.2897 15.21001481391322
BEESAT-3                
1 39135U 13015F   20141.17959350  .00000605  00000-0  38952-4 0  9990
2 39135  64.8663  32.7257 0037886 252.8650 106.8326 15.18128798391315
BEESAT-2                
1 39136U 13015G   20141.41355861  .00000754  00000-0  47025-4 0  9991
2 39136  64.8697  36.8445 0029653 280.9761  78.8030 15.17520893391259
NEE-01 PEGASO           
1 39151U 13018B   20141.21164508  .00000116  00000-0  22227-4 0  9994
2 39151  97.9709 240.2246 0016901 187.1504 172.9469 14.80163773381500
ESTCUBE 1               
1 39161U 13021C   20141.48432623  .00000076  00000-0  19778-4 0  9996
2 39161  97.9637 225.0769 0009145 337.1251  22.9540 14.72313862377922
POPACS 1                
1 39268U 13055D   20140.79420387  .00001449  00000-0  39637-4 0  9999
2 39268  81.0000 326.4651 0616762 307.4294  47.2264 14.39162080345341
POPACS 2                
1 39269U 13055E   20140.86890650  .00003190  00000-0  89898-4 0  9991
2 39269  81.0156   3.7224 0678979  43.8846 321.4246 14.25375539341913
POPACS 3                
1 39270U 13055F   20140.94683432  .00001721  00000-0  51661-4 0  9995
2 39270  81.0188  24.8988 0711087 104.6789 263.4262 14.16811074341799
ZACUBE-1 (TSHEPISOSAT)  
1 39417U 13066B   20140.79100415  .00000184  00000-0  29438-4 0  9997
2 39417  97.5646 140.4091 0059238  13.4734 346.8045 14.81267011350796
WNISAT-1                
1 39423U 13066H   20141.49894110  .00000065  00000-0  22831-4 0  9992
2 39423  97.8018  64.8901 0175314 343.1586  16.3840 14.53115799344362
TRITON-1                
1 39427U 13066M   20141.46409011  .00000156  00000-0  32656-4 0  9992
2 39427  97.7223 103.9508 0113765 166.8957 193.5241 14.67993919347757
GOMX-1                  
1 39430U 13066Q   20141.48857778  .00000140  00000-0  34812-4 0  9994
2 39430  97.7883  81.7077 0149613 272.8760  85.5314 14.59393044345728
CUBEBUG-2 (LO-74)       
1 39440U 13066AA  20141.22071512  .00000169  00000-0  30251-4 0  9995
2 39440  97.6294 125.2848 0081660  72.2284 288.7817 14.76003323349618
NEE-02 KRYSAOR          
1 39441U 13066AB  20141.41684819  .00000105  00000-0  21793-4 0  9998
2 39441  97.6367 123.0051 0083220  80.1943 280.8651 14.75011929349435
FUNCUBE-1 (AO-73)       
1 39444U 13066AE  20141.27780338  .00000228  00000-0  34274-4 0  9992
2 39444  97.5591 143.0835 0058082   4.3107 355.8595 14.82118051349786
UWE-3                   
1 39446U 13066AG  20140.91918034  .00000184  00000-0  30831-4 0  9996
2 39446  97.5974 132.1900 0071076  43.8620 316.8205 14.78537908348359
AEROCUBE 5A             
1 39465U 13072D   20140.79773091  .00001790  00000-0  17530-3 0  9996
2 39465 120.4949  59.4037 0260483 214.4031 143.9904 14.76329947 37130
AEROCUBE 5B             
1 39466U 13072E   20141.39337215  .00002268  00000-0  18471-3 0  9994
2 39466 120.4891  96.8273 0231502 223.4701 134.7892 14.85898749 37403
BRITE-CA1 (TORONTO)     
1 40020U 14033L   20141.44063880  .00000041  00000-0  15222-4 0  9999
2 40020  97.7315 331.2581 0087841 161.2097 199.2385 14.66644533316657
DUCHIFAT-1              
1 40021U 14033M   20140.75575885  .00000415  00000-0  47894-4 0  9991
2 40021  97.9420  71.8172 0013678  27.9230 332.2719 14.90891047321617
NANOSATC-BR1            
1 40024U 14033Q   20140.76267145  .00000243  00000-0  31023-4 0  9998
2 40024  97.9272  68.2972 0013054  32.3918 327.8098 14.90062237321480
QB50P1                  
1 40025U 14033R   20141.03167736  .00000171  00000-0  24111-4 0  9995
2 40025  97.9153  65.3450 0013407  38.3180 321.8987 14.89127148321377
QB50P2                  
1 40032U 14033Y   20141.34082134  .00000205  00000-0  28040-4 0  9998
2 40032  97.9043  63.1843 0012726  34.5627 325.6414 14.88653952321320
PERSEUS-M2              
1 40037U 14033AD  20141.19322847  .00000041  00000-0  10886-4 0  9991
2 40037  97.8898  57.7527 0015528  48.8395 311.4158 14.86539914320969
PERSEUS-M1              
1 40039U 14033AF  20140.92628628  .00000043  00000-0  11168-4 0  9995
2 40039  97.8864  56.2910 0015355  47.8464 312.4053 14.86159563320848
POLYITAN-1              
1 40042U 14033AJ  20140.82122447  .00000212  00000-0  28664-4 0  9993
2 40042  97.9237  65.6441 0015456  29.1596 331.0480 14.88873916321244
TIGRISAT                
1 40043U 14033AK  20141.18856146  .00000116  00000-0  24333-4 0  9996
2 40043  97.7134 358.8070 0061428  90.0301 270.7948 14.74372957318186
AEROCUBE 6A             
1 40045U 14033AM  20141.06963649  .00000182  00000-0  33228-4 0  9998
2 40045  97.7387   4.0372 0059296  81.9361 278.8570 14.75565832318163
AEROCUBE 6B             
1 40046U 14033AN  20141.14705265  .00000253  00000-0  43291-4 0  9996
2 40046  97.7298   3.4155 0058523  80.9468 279.8358 14.75551803318311
UKUBE-1                 
1 40074U 14037F   20141.52458800  .00000271  00000-0  39499-4 0  9998
2 40074  98.4563 328.2010 0003926 197.7829 162.3240 14.84254737317612
BRITE-PL2 (HEWELIUSZ)   
1 40119U 14049B   20140.80806007  .00000064  00000-0  14094-4 0  9991
2 40119  97.8934 233.3118 0016986 198.1373 161.9238 14.84500625311448
FIREBIRD 4              
1 40378U 15003C   20141.40230419  .00001910  00000-0  76312-4 0  9996
2 40378  99.0969 195.9616 0124928  48.0772 313.1029 15.20007838293059
GRIFEX                  
1 40379U 15003D   20141.23875286  .00001552  00000-0  68164-4 0  9993
2 40379  99.1043 187.8455 0134069  72.8611 288.7247 15.16354737292572
EXOCUBE (CP10)          
1 40380U 15003E   20141.07201728  .00001177  00000-0  55259-4 0  9995
2 40380  99.1116 183.3795 0139142  87.6839 274.0311 15.14317205292269
AEROCUBE 8A             
1 40659U 15025J   20140.81652836  .00013355  00000-0  14457-3 0  9994
2 40659  55.0169  65.4543 0111589 100.9206 260.4409 15.56606160 39094
AEROCUBE 8B             
1 40660U 15025K   20141.18632522  .00015691  00000-0  16687-3 0  9999
2 40660  55.0144  61.7586 0110675 103.7235 257.6150 15.56971661 39163
TIANWANG 1C (TW-1C)     
1 40926U 15051B   20141.44522779  .00016001  00000-0  16523-3 0  9999
2 40926  97.0867 193.0523 0006693 174.9706 310.3756 15.64828185262644
TIANWANG 1A (TW-1A)     
1 40928U 15051D   20141.38518425  .00001953  00000-0  46959-4 0  9994
2 40928  97.1118 169.8991 0008692 293.0064 196.9508 15.42479121261041
EXACTVIEW 9             
1 40936U 15052G   20141.40694843  .00000747  00000-0  15296-4 0  9996
2 40936   6.0019 180.2772 0010896 228.8475 131.0712 14.76569193251078
AEROCUBE 5C             
1 40965U 15058B   20140.67311988 -.00000057  00000-0  13049-4 0  9997
2 40965  64.7786 231.0813 0167786  84.6627 277.3595 14.74516964 37061
AEROCUBE 7              
1 40966U 15058C   20141.40514669 -.00000022  00000-0  17219-4 0  9996
2 40966  64.7787 227.3849 0166671  84.0697 277.9376 14.74815937 37170
ATHENOXAT 1             
1 41168U 15077C   20140.71604027  .00001558  00000-0  45783-4 0  9994
2 41168  14.9882 272.2660 0011309  87.8225 272.3391 15.14333043244986
GALASSIA                
1 41170U 15077E   20140.70421218  .00001533  00000-0  43901-4 0  9998
2 41170  14.9885 264.2930 0012552 114.4766 245.6865 15.14630703245052
VELOX-II                
1 41171U 15077F   20140.81045555  .00001248  00000-0  32894-4 0  9999
2 41171  14.9918 307.0740 0008807  12.9371 347.1175 15.11672365244684
